K11S26S 24.5   0.15 K1528 211.59507  309.81489  353.66438    2.62424  0.4527863  0.44547614   1.6979299  8 MPO232599    22   1    9 days 0.53 M-v 3Eh MPCW       2803          2011 SS26          20111001
K11S32M 23.0   0.15 K1528  37.74761  324.56815  357.69271    6.71195  0.4267964  0.31156746   2.1549374  8 MPO207958    11   1    2 days 0.11 M-v 38h MPCS       2804          2011 SM32          20110923
K11S32O 21.2   0.15 K1528 147.54966  243.38942  198.90291    9.91756  0.4768477  0.43534963   1.7241588  3 MPO242002   185   1  205 days 0.40 M-v 3Eh MPCW       A803          2011 SO32          20120414
K11S32P 23.6   0.15 K1528  45.36408  288.61300   10.19473    2.91984  0.5838584  0.31696546   2.1304013  5 MPO268477    47   1   13 days 0.71 M-v 3Eh MPCW       2803          2011 SP32          20111003
K11S32Q 25.0   0.15 K1528 311.37706  334.12319   12.31470    1.60428  0.5930884  0.24992995   2.4960724  5 MPO211784    41   1   38 days 0.29 M-v 3Eh MPCADO     2804          2011 SQ32          20111031
K11S55Q 18.2   0.15 K1528  83.46416  328.31202   23.24072   22.33277  0.6495629  0.06465814   6.1478121  5 MPO210018    15   1   26 days 0.20 M-v 38h MPCS       200A          2011 SQ55          20111019
K11S58E 27.8   0.15 K1528  84.55191   70.50115    5.65516    1.21234  0.6132830  0.37555433   1.9026294  4 MPO207970    55   1    6 days 0.61 M-v 3Eh MPCW       2803          2011 SE58          20110927
K11S67S 22.2   0.15 K1528 229.67015  218.92038  183.72619   11.88450  0.5837937  0.19329070   2.9625253  4 MPO215190    45   1   56 days 0.28 M-v 38h MPCADO     2804          2011 SS67          20111118
K11S67U 20.2   0.15 K1528 250.46319  126.52688  179.20157   18.59472  0.5772757  0.18980063   2.9987317  4 MPO218111    29   1   62 days 0.27 M-v 38h MPCALB     2804          2011 SU67          20111124
K11S68J 19.2   0.15 K1528 351.73641  211.36115  183.27370   26.54957  0.4428652  0.28922470   2.2645355  1 MPO298702    83   2 2011-2014 0.34 M-v 38h MPCW       0804          2011 SJ68          20140624
K11S68K 27.6   0.15 K1528  64.93581  135.03427  181.00739    7.83425  0.3000630  0.61729635   1.3660720  6 MPO207983    30   1    2 days 1.00 M-v 3Eh MPCADO     2803          2011 SK68          20110925
K11S68M 19.6   0.15 K1528 329.07756  109.06801   24.17178   19.23180  0.6643003  0.59768360   1.3957956  3 MPO234776   188   2 2011-2012 0.39 M-v 3Eh MPCW       8803          2011 SM68          20120722
K11S68P 22.3   0.15 K1528  79.71735  301.25268   25.40807    9.25751  0.1610952  0.62586800   1.3535705  3 MPO289641    87   2 2011-2014 0.46 M-v 38h MPCW       0804          2011 SP68          20140327
K11S68U 21.4   0.15 K1528 333.58578  150.34940  232.91088    5.48178  0.4630601  0.27733282   2.3288161  4 MPO218111    64   1   91 days 0.34 M-v 38h MPCADO     2804          2011 SU68          20111224
K11S69R 20.1   0.15 K1528 305.96075  206.88660  227.42248    5.83381  0.5484453  0.26348732   2.4096996  3 MPO227505   590   1  185 days 0.33 M-v 3Eh MPCADO     2804          2011 SR69          20120327
K11S70P 23.1   0.15 K1528  55.18131  293.68531  145.60628    5.81949  0.5258481  0.35555203   1.9733341  8 MPO207986    13   1    8 days 0.39 M-v 3Eh MPCALB     2803          2011 SP70          20111002
K11S71U 24.3   0.15 K1528 321.48713    3.52627  350.97964   14.71193  0.1629366  0.55081496   1.4738917  6 MPO207986    13   1    6 days 0.20 M-v 38h MPCK       2804          2011 SU71          20110926
K11S71V 18.0   0.15 K1528 323.44193  190.44955   80.62498   13.42132  0.6103895  0.23154783   2.6264889  0 MPO322261    67   4 2002-2014 0.27 M-v 3Eh MPCADO     9804          2011 SV71          20141228
K11S71W 22.6   0.15 K1528   0.57909  306.97644   23.99296    7.45192  0.5400755  0.28478425   2.2880143  4 MPO218111    36   1   61 days 0.28 M-v 3Eh MPCALB     2804          2011 SW71          20111124
K11S97E 24.7   0.15 K1528 289.71308  243.17178  188.84329    2.38794  0.6635435  0.24589457   2.5233070  4 MPO227505    79   1   15 days 0.34 M-v 3Eh MPCW       2803          2011 SE97          20111012
K11SA2M 24.6   0.15 K1528 314.00100  251.06315  109.68286    1.67983  0.5583474  0.25422570   2.4678746  5 MPO211790    30   1   37 days 0.27 M-v 3Eh MPCADO     2804          2011 SM102         20111101
K11SA8C 27.9   0.15 K1528 298.92879   82.46834    3.21864    6.78723  0.7413382  0.25246967   2.4793047  6 MPO208002    31   1    0 days 0.80 M-v 3Eh MPCS       2803          2011 SC108         20110927
K11SA8E 21.2   0.15 K1528 294.21978  284.35938  140.10282    3.41306  0.5402572  0.25339830   2.4732437  3 MPO221224    94   1  114 days 0.33 M-v 38h MPCALB     2804          2011 SE108         20120118
K11SA8F 20.1   0.15 K1528 349.89009  281.07872    7.03120    7.68291  0.5310849  0.26260480   2.4150953  6 MPO211791    32   1   36 days 0.37 M-v 38h MPCADO     2804          2011 SF108         20111101
K11SC0J 17.1   0.15 K1528 217.30019  181.51826  201.12125   20.93314  0.5302839  0.17330332   3.1861395  2 MPO213526    51   2 2005-2011 0.48 M-v 38h MPCW       0005          2011 SJ120         20111123
K11SC0M 22.4   0.15 K1528  17.51885  167.37274  190.03078    4.49571  0.4058242  0.30474345   2.1869883  5 MPO210066    33   1   36 days 0.23 M-v 38h MPCADO     2804          2011 SM120         20111101
K11SC0Y 23.1   0.15 K1528  95.11405  115.04417    2.58719   31.92932  0.2296380  0.73477848   1.2162749  4 MPO230280    67   1  181 days 0.48 M-v 3Eh MPCADO     2803          2011 SY120         20120325
K11SC0Z 22.3   0.15 K1528  12.89897  139.01448  185.42177   25.12014  0.4349569  0.29035484   2.2586556  8 MPO208008    17   1    2 days 0.13 M-v 38h MPCK       2804          2011 SZ120         20110928
K11SC1A 24.9   0.15 K1528 347.26420  147.59877  187.90221   22.02826  0.2876630  0.56194056   1.4543730  8 MPO211792    21   1    4 days 0.65 M-v 3Eh MPCADO     2804          2011 SA121         20111001
K11SH3F 22.0   0.15 K1528 230.37051  332.36829   25.92426   22.55818  0.5796190  0.18426699   3.0584709  4 MPO211797    23   1   37 days 0.27 M-v 38h MPCADO     2804          2011 SF173         20111031
K11SH3G 25.0   0.15 K1528  64.85043  241.56769   87.02792    1.83692  0.4802999  0.33574851   2.0501863  7 MPO208020    14   1    7 days 0.27 M-v 3Eh MPCALB     2804          2011 SG173         20111002
K11SH3L 25.5   0.15 K1528 201.47099  238.14703  186.82551   25.46723  0.1446722  0.78687840   1.1619773  8 MPO208021    20   1    2 days 0.64 M-v 3Eh MPCK       2803          2011 SL173         20110929
K11SH3M 27.8   0.15 K1528 297.44877  238.72892  174.43446    0.51474  0.6470087  0.24923378   2.5007183  5 MPO208021    31   1    1 days 0.65 M-v 3Eh MPCW       2803          2011 SM173         20110930
K11SI9G 20.3   0.15 K1528  24.41744  276.51773   20.65324   37.06664  0.6035425  0.29402404   2.2398253  5 MPO211799    23   1   40 days 0.32 M-v 3Eh MPCADO     2803          2011 SG189         20111102
K11SI9H 24.1   0.15 K1528 149.17681  217.46116  182.77176    5.86602  0.1051915  0.72848309   1.2232721  4 MPO215194    56   1   50 days 0.43 M-v 3Eh MPCADO     2804          2011 SH189         20111117
K11SI9J 22.6   0.15 K1528 102.48504    8.35863   23.41121    4.64170  0.3866335  0.38361935   1.8758685  4 MPO218112    60   1   87 days 0.29 M-v 38h MPCALB     2804          2011 SJ189         20111224
K11SI9K 23.8   0.15 K1528 164.24880  355.30632    7.33399   27.87432  0.3649914  0.42498799   1.7520706  7 MPO211799    19   1    4 days 0.27 M-v 38h MPCADO     2804          2011 SK189         20111002
K11SI9L 24.9   0.15 K1528 325.46148   63.12278  347.81195    1.38841  0.5639268  0.27392447   2.3480941  9 MPO208025    11   1    1 days 0.26 M-v 3Eh MPCK       2804          2011 SL189         20110930
K11SI9M 24.7   0.15 K1528 323.67162  132.20817  190.76798    7.86944  0.5946590  0.25578113   2.4578595  8 MPO208025    12   1    1 days 0.20 M-v 3Eh MPCK       2803          2011 SM189         20110930
K11SI9N 25.6   0.15 K1528 281.98257  356.62681    4.28753   16.07862  0.2941026  0.52054940   1.5304815  8 MPO208026    17   1    1 days 0.40 M-v 3Eh MPCALB     2804          2011 SN189         20110930
K11SI9O 26.5   0.15 K1528  84.76333  306.87915    2.31271    4.44481  0.5667639  0.35015298   1.9935670  7 MPO208026    31   1    7 days 0.26 M-v 3Eh MPCW       2803          2011 SO189         20111006
K11SJ1C 19.3   0.15 K1528  95.62762  196.34567    5.78207   18.74499  0.0440465  0.52396086   1.5238311  3 MPO230280    45   3 2003-2011 0.40 M-v 38h MPCW       0005          2011 SC191         20111031
K11SJ1E 25.1   0.15 K1528 302.28738  309.98180    5.19984   10.31553  0.6548866  0.23896687   2.5718418  7 MPO208026    36   1    3 days 0.38 M-v 3Eh MPCADO     2803          2011 SE191         20111003
K11SM8N 18.9   0.15 K1528 211.03847  108.36196  225.85205    7.00047  0.5444255  0.16321206   3.3161530  2 MPO271284    37   2 2005-2011 0.25 M-v 38h MPCADO     0005          2011 SN228         20111026
K11SM9P 17.0   0.15 K1528 241.32383  122.11529  209.68500   23.63461  0.5097162  0.17612830   3.1519788  5 MPO213544    24   1   60 days 0.41 M-v 38h MPCADO     2005          2011 SP229         20111129
K11SN2T 21.3   0.15 K1528  59.71734  337.43040  332.37435    2.13655  0.4568842  0.31723828   2.1291797  0 MPO315266   105   2 2011-2014 0.28 M-v 38h MPCALB     0804          2011 ST232         20141023
K11SN2U 20.0   0.15 K1528 324.54673  112.23750  216.20209   18.99383  0.4830293  0.25220888   2.4810135  5 MPO215196    62   1   46 days 0.39 M-v 38h MPCALB     2804          2011 SU232         20111116
K11SO8E 22.4   0.15 K1528 340.83273  146.06221  210.53177    4.99566  0.4978183  0.27559911   2.3385725  6 MPO210138    45   1   42 days 0.62 M-v 38h MPCADO     2804          2011 SE248         20111102
K11SO9Q 14.4   0.15 K1528  97.09173  263.89235   44.91613   16.67391  0.4514657  0.05785482   6.6207879  2 MPO210138    43   3 1995-2011 0.29 M-v 38h MPCS       000A          2011 SQ249         20111024
